{"type": "FeatureCollection", "features": [ {"type": "Feature", "properties": {"norad_id": 38779, "name": "GSAT-10 (GAGAN/PRN 128)", "group": "gnss", "lat": 0.028618362385914496, "lon": 50.09360654938363, "alt_km": 35783.956887462045, "timestamp": "2025-12-06T16:45:42.965312+00:00", "meta": {"OBJECT_NAME": "GSAT-10 (GAGAN/PRN 128)", "OBJECT_ID": "2012-051B", "EPOCH": "2025-12-06T03:47:13.284960", "MEAN_MOTION": 1.00273472, "ECCENTRICITY": 0.00022565, "INCLINATION": 0.0249, "RA_OF_ASC_NODE": 263.1967, "ARG_OF_PERICENTER": 227.0163, "MEAN_ANOMALY": 84.7573, "EPHEMERIS_TYPE": 0, "CLASSIFICATION_TYPE": "U", "NORAD_CAT_ID": 38779, "ELEMENT_SET_NO": 999, "REV_AT_EPOCH": 4816, "BSTAR": 0, "MEAN_MOTION_DOT": -1.57e-06, "MEAN_MOTION_DDOT": 0}, "tle": {"line1": "1 38779U 12051B   25340.15779265 -.00000157  00000+0  00000+0 0  9991", "line2": "2 38779   0.0249 263.1967 0002256 227.0163  84.7573  1.00273472 48160"}}, "geometry": {"type": "Point", "coordinates": [50.09360654938363, 0.028618362385914496]}}, {"type": "Feature", "properties": {"norad_id": 38833, "name": "GPS BIIF-3  (PRN 24)", "group": "gnss", "lat": -43.76341699091672, "lon": 16.54871434808281, "alt_km": 20651.900788715746, "timestamp": "2025-12-06T16:45:42.965327+00:00", "meta": {"OBJECT_NAME": "GPS BIIF-3  (PRN 24)", "OBJECT_ID": "2012-053A", "EPOCH": "2025-12-05T20:54:28.108224", "MEAN_MOTION": 2.00564871, "ECCENTRICITY": 0.01756137, "INCLINATION": 53.5564, "RA_OF_ASC_NODE": 151.5199, "ARG_OF_PERICENTER": 63.8922, "MEAN_ANOMALY": 297.9105, "EPHEMERIS_TYPE": 0, "CLASSIFICATION_TYPE": "U", "NORAD_CAT_ID": 38833, "ELEMENT_SET_NO": 999, "REV_AT_EPOCH": 9556, "BSTAR": 0, "MEAN_MOTION_DOT": 6.1e-07, "MEAN_MOTION_DDOT": 0}, "tle": {"line1": "1 38833U 12053A   25339.87115866  .00000061  00000+0  00000+0 0  9995", "line2": "2 38833  53.5564 151.5199 0175613  63.8922 297.9105  2.00564871 95560"}}, "geometry": {"type": "Point", "coordinates": [16.54871434808281, -43.76341699091672]}}, {"type": "Feature", "properties": {"norad_id": 38857, "name": "GSAT0103 (GALILEO-FM3)", "group": "gnss", "lat": 40.0707759043666, "lon": -108.21222542930893, "alt_km": 23222.514929003384, "timestamp": "2025-12-06T16:45:42.965339+00:00", "meta": {"OBJECT_NAME": "GSAT0103 (GALILEO-FM3)", "OBJECT_ID": "2012-055A", "EPOCH": "2025-12-01T05:01:21.613152", "MEAN_MOTION": 1.70473256, "ECCENTRICITY": 0.00023005, "INCLINATION": 55.6823, "RA_OF_ASC_NODE": 106.9832, "ARG_OF_PERICENTER": 267.1494, "MEAN_ANOMALY": 92.7944, "EPHEMERIS_TYPE": 0, "CLASSIFICATION_TYPE": "U", "NORAD_CAT_ID": 38857, "ELEMENT_SET_NO": 999, "REV_AT_EPOCH": 8163, "BSTAR": 0, "MEAN_MOTION_DOT": 4.2e-07, "MEAN_MOTION_DDOT": 0}, "tle": {"line1": "1 38857U 12055A   25335.20927793  .00000042  00000+0  00000+0 0  9995", "line2": "2 38857  55.6823 106.9832 0002300 267.1494  92.7944  1.70473256 81637"}}, "geometry": {"type": "Point", "coordinates": [-108.21222542930893, 40.0707759043666]}}, {"type": "Feature", "properties": {"norad_id": 38953, "name": "BEIDOU-2 G6 (C02)", "group": "gnss", "lat": -1.593827344597047, "lon": 51.31078266814226, "alt_km": 35764.86655727766, "timestamp": "2025-12-06T16:45:42.965351+00:00", "meta": {"OBJECT_NAME": "BEIDOU-2 G6 (C02)", "OBJECT_ID": "2012-059A", "EPOCH": "2025-12-06T03:47:35.748960", "MEAN_MOTION": 1.00270309, "ECCENTRICITY": 0.00075213, "INCLINATION": 3.9317, "RA_OF_ASC_NODE": 75.5675, "ARG_OF_PERICENTER": 289.3051, "MEAN_ANOMALY": 211.2727, "EPHEMERIS_TYPE": 0, "CLASSIFICATION_TYPE": "U", "NORAD_CAT_ID": 38953, "ELEMENT_SET_NO": 999, "REV_AT_EPOCH": 4797, "BSTAR": 0, "MEAN_MOTION_DOT": -1.69e-06, "MEAN_MOTION_DDOT": 0}, "tle": {"line1": "1 38953U 12059A   25340.15805265 -.00000169  00000+0  00000+0 0  9996", "line2": "2 38953   3.9317  75.5675 0007521 289.3051 211.2727  1.00270309 47972"}}, "geometry": {"type": "Point", "coordinates": [51.31078266814226, -1.593827344597047]}}, {"type": "Feature", "properties": {"norad_id": 38977, "name": "LUCH 5B (SDCM/PRN 125)", "group": "gnss", "lat": -9.897367277615277, "lon": -49.2700308727395, "alt_km": 35776.25766666291, "timestamp": "2025-12-06T16:45:42.965364+00:00", "meta": {"OBJECT_NAME": "LUCH 5B (SDCM/PRN 125)", "OBJECT_ID": "2012-061A", "EPOCH": "2025-12-05T23:12:38.603808", "MEAN_MOTION": 1.00272178, "ECCENTRICITY": 0.00074333, "INCLINATION": 10.0624, "RA_OF_ASC_NODE": 51.767, "ARG_OF_PERICENTER": 189.4366, "MEAN_ANOMALY": 165.6208, "EPHEMERIS_TYPE": 0, "CLASSIFICATION_TYPE": "U", "NORAD_CAT_ID": 38977, "ELEMENT_SET_NO": 999, "REV_AT_EPOCH": 4766, "BSTAR": 0, "MEAN_MOTION_DOT": -1.35e-06, "MEAN_MOTION_DDOT": 0}, "tle": {"line1": "1 38977U 12061A   25339.96711347 -.00000135  00000+0  00000+0 0  9992", "line2": "2 38977  10.0624  51.7670 0007433 189.4366 165.6208  1.00272178 47668"}}, "geometry": {"type": "Point", "coordinates": [-49.2700308727395, -9.897367277615277]}}, {"type": "Feature", "properties": {"norad_id": 39155, "name": "COSMOS 2485 (747)", "group": "gnss", "lat": 34.76780028914616, "lon": -118.51491323846271, "alt_km": 19123.59712225924, "timestamp": "2025-12-06T16:45:42.965377+00:00", "meta": {"OBJECT_NAME": "COSMOS 2485 (747)", "OBJECT_ID": "2013-019A", "EPOCH": "2025-12-05T02:32:45.729312", "MEAN_MOTION": 2.13102875, "ECCENTRICITY": 0.00246247, "INCLINATION": 65.3094, "RA_OF_ASC_NODE": 80.124, "ARG_OF_PERICENTER": 229.2984, "MEAN_ANOMALY": 130.4888, "EPHEMERIS_TYPE": 0, "CLASSIFICATION_TYPE": "U", "NORAD_CAT_ID": 39155, "ELEMENT_SET_NO": 999, "REV_AT_EPOCH": 9814, "BSTAR": 0, "MEAN_MOTION_DOT": -2.1e-07, "MEAN_MOTION_DDOT": 0}, "tle": {"line1": "1 39155U 13019A   25339.10608483 -.00000021  00000+0  00000+0 0  9991", "line2": "2 39155  65.3094  80.1240 0024624 229.2984 130.4888  2.13102875 98144"}}, "geometry": {"type": "Point", "coordinates": [-118.51491323846271, 34.76780028914616]}}, {"type": "Feature", "properties": {"norad_id": 39166, "name": "GPS BIIF-4  (PRN 27)", "group": "gnss", "lat": -19.982753225063192, "lon": -98.13615826900809, "alt_km": 20075.60446690079, "timestamp": "2025-12-06T16:45:42.965389+00:00", "meta": {"OBJECT_NAME": "GPS BIIF-4  (PRN 27)", "OBJECT_ID": "2013-023A", "EPOCH": "2025-12-02T17:50:49.750368", "MEAN_MOTION": 2.00565046, "ECCENTRICITY": 0.0137297, "INCLINATION": 54.6608, "RA_OF_ASC_NODE": 276.9746, "ARG_OF_PERICENTER": 48.5033, "MEAN_ANOMALY": 312.6627, "EPHEMERIS_TYPE": 0, "CLASSIFICATION_TYPE": "U", "NORAD_CAT_ID": 39166, "ELEMENT_SET_NO": 999, "REV_AT_EPOCH": 9194, "BSTAR": 0, "MEAN_MOTION_DOT": -3.8e-07, "MEAN_MOTION_DDOT": 0}, "tle": {"line1": "1 39166U 13023A   25336.74363137 -.00000038  00000+0  00000+0 0  9997", "line2": "2 39166  54.6608 276.9746 0137297  48.5033 312.6627  2.00565046 91947"}}, "geometry": {"type": "Point", "coordinates": [-98.13615826900809, -19.982753225063192]}}, {"type": "Feature", "properties": {"norad_id": 39199, "name": "IRNSS-1A", "group": "gnss", "lat": -23.689898880923273, "lon": 28.38457767083401, "alt_km": 35846.3435465113, "timestamp": "2025-12-06T16:45:42.965400+00:00", "meta": {"OBJECT_NAME": "IRNSS-1A", "OBJECT_ID": "2013-034A", "EPOCH": "2025-12-02T19:49:26.431104", "MEAN_MOTION": 1.00279053, "ECCENTRICITY": 0.00216608, "INCLINATION": 35.2852, "RA_OF_ASC_NODE": 66.6964, "ARG_OF_PERICENTER": 185.4059, "MEAN_ANOMALY": 172.3398, "EPHEMERIS_TYPE": 0, "CLASSIFICATION_TYPE": "U", "NORAD_CAT_ID": 39199, "ELEMENT_SET_NO": 999, "REV_AT_EPOCH": 4539, "BSTAR": 0, "MEAN_MOTION_DOT": 6.5e-07, "MEAN_MOTION_DDOT": 0}, "tle": {"line1": "1 39199U 13034A   25336.82600036  .00000065  00000+0  00000+0 0  9995", "line2": "2 39199  35.2852  66.6964 0021660 185.4059 172.3398  1.00279053 45393"}}, "geometry": {"type": "Point", "coordinates": [28.38457767083401, -23.689898880923273]}}, {"type": "Feature", "properties": {"norad_id": 39533, "name": "GPS BIIF-5  (PRN 30)", "group": "gnss", "lat": -16.102801691283386, "lon": 144.87409911402855, "alt_km": 20265.516874223013, "timestamp": "2025-12-06T16:45:42.965412+00:00", "meta": {"OBJECT_NAME": "GPS BIIF-5  (PRN 30)", "OBJECT_ID": "2014-008A", "EPOCH": "2025-12-05T17:30:27.207648", "MEAN_MOTION": 2.00573953, "ECCENTRICITY": 0.00790348, "INCLINATION": 53.63, "RA_OF_ASC_NODE": 157.2106, "ARG_OF_PERICENTER": 226.4047, "MEAN_ANOMALY": 132.9556, "EPHEMERIS_TYPE": 0, "CLASSIFICATION_TYPE": "U", "NORAD_CAT_ID": 39533, "ELEMENT_SET_NO": 999, "REV_AT_EPOCH": 8580, "BSTAR": 0, "MEAN_MOTION_DOT": 6.8e-07, "MEAN_MOTION_DDOT": 0}, "tle": {"line1": "1 39533U 14008A   25339.72948157  .00000068  00000+0  00000+0 0  9993", "line2": "2 39533  53.6300 157.2106 0079034 226.4047 132.9556  2.00573953 85808"}}, "geometry": {"type": "Point", "coordinates": [144.87409911402855, -16.102801691283386]}}, {"type": "Feature", "properties": {"norad_id": 39617, "name": "ASTRA 5B (EGNOS/PRN 123)", "group": "gnss", "lat": -0.022058228350615487, "lon": -9.295344135507184, "alt_km": 35787.348832105374, "timestamp": "2025-12-06T16:45:42.965424+00:00", "meta": {"OBJECT_NAME": "ASTRA 5B (EGNOS/PRN 123)", "OBJECT_ID": "2014-011B", "EPOCH": "2025-12-06T06:55:43.292928", "MEAN_MOTION": 1.00268652, "ECCENTRICITY": 0.00045817, "INCLINATION": 0.0512, "RA_OF_ASC_NODE": 21.2549, "ARG_OF_PERICENTER": 238.1652, "MEAN_ANOMALY": 303.3448, "EPHEMERIS_TYPE": 0, "CLASSIFICATION_TYPE": "U", "NORAD_CAT_ID": 39617, "ELEMENT_SET_NO": 999, "REV_AT_EPOCH": 4273, "BSTAR": 0, "MEAN_MOTION_DOT": 1.45e-06, "MEAN_MOTION_DDOT": 0}, "tle": {"line1": "1 39617U 14011B   25340.28869552  .00000145  00000+0  00000+0 0  9990", "line2": "2 39617   0.0512  21.2549 0004581 238.1652 303.3448  1.00268652 42735"}}, "geometry": {"type": "Point", "coordinates": [-9.295344135507184, -0.022058228350615487]}}]}